[
    {
        "Altitude(m)": 622205.8317780817,
        "Argument of Periapsis(deg)": 0.0,
        "Eccentricity": 0.0,
        "Inclination(deg)": 60.0,
        "Latitude(deg)": -52.16233684848944,
        "Longitude(deg)": 72.70046533155946,
        "Mean Anomaly(deg)": -114.5455,
        "RAAN(deg)": 305.0,
        "Satellite Name": "Test1 1357",
        "Satellite Number": 1357,
        "Semi-Major Axis(m)": 6980739.136638005,
        "Time(s)": 0
    },
    {
        "Altitude(m)": 622344.7381662745,
        "Argument of Periapsis(deg)": 0.00010418945913296404,
        "Eccentricity": 0.0,
        "Inclination(deg)": 60.0,
        "Latitude(deg)": -52.51991570532169,
        "Longitude(deg)": 73.48167686635288,
        "Mean Anomaly(deg)": -113.92539385453817,
        "RAAN(deg)": 304.99957995086027,
        "Satellite Name": "Test1 1357",
        "Satellite Number": 1357,
        "Semi-Major Axis(m)": 6980739.136638005,
        "Time(s)": 10
    }
]